[{"OBJECT_NAME":"IRIDE-MS2-HEO-4","OBJECT_ID":"2025-135BG","EPOCH":"2026-03-09T22:17:20.193216","MEAN_MOTION":14.93984506,"ECCENTRICITY":0.00032351,"INCLINATION":97.7591,"RA_OF_ASC_NODE":184.5437,"ARG_OF_PERICENTER":326.5453,"MEAN_ANOMALY":33.5562,"EPHEMERIS_TYPE":0,"CLASSIFICATION_TYPE":"U","NORAD_CAT_ID":64582,"ELEMENT_SET_NO":999,"REV_AT_EPOCH":3908,"BSTAR":0.0003778486,"MEAN_MOTION_DOT":3.97e-5,"MEAN_MOTION_DDOT":0},{"OBJECT_NAME":"KUIPER-00179","OBJECT_ID":"2025-301D","EPOCH":"2026-03-09T22:00:01.999584","MEAN_MOTION":15.06426136,"ECCENTRICITY":0.00027009,"INCLINATION":51.8878,"RA_OF_ASC_NODE":65.7875,"ARG_OF_PERICENTER":79.7828,"MEAN_ANOMALY":141.5104,"EPHEMERIS_TYPE":0,"CLASSIFICATION_TYPE":"U","NORAD_CAT_ID":67136,"ELEMENT_SET_NO":999,"REV_AT_EPOCH":537,"BSTAR":-0.078767589,"MEAN_MOTION_DOT":-0.01086026,"MEAN_MOTION_DDOT":0}]
